officeCode,city,phone,addressLine1,country,postalCode,territory
1,Tokyo,123-456-429,"123 Main St, Tokyo",Japan,100-0001,NULL
10,Tokyo,123-456-150,"123 Main St, Tokyo",Japan,100-0001,NULL
100,New York,123-456-381,"123 Main St, New York",USA,10001,NULL
1000,New York,123-456-923,"123 Main St, New York",USA,10001,NULL
101,London,123-456-409,"123 Main St, London",UK,SW1A 1AA,NULL
102,New York,123-456-680,"123 Main St, New York",USA,10001,NULL
103,London,123-456-437,"123 Main St, London",UK,SW1A 1AA,NULL
104,London,123-456-253,"123 Main St, London",UK,SW1A 1AA,NULL
105,Tokyo,123-456-871,"123 Main St, Tokyo",Japan,100-0001,NULL
106,New York,123-456-753,"123 Main St, New York",USA,10001,NULL
107,Tokyo,123-456-492,"123 Main St, Tokyo",Japan,100-0001,NULL
108,Berlin,123-456-981,"123 Main St, Berlin",Germany,10115,NULL
109,Paris,123-456-944,"123 Main St, Paris",France,75001,NULL
11,New York,123-456-744,"123 Main St, New York",USA,10001,NULL
110,New York,123-456-415,"123 Main St, New York",USA,10001,NULL
111,Paris,123-456-262,"123 Main St, Paris",France,75001,NULL
112,New York,123-456-616,"123 Main St, New York",USA,10001,NULL
113,London,123-456-091,"123 Main St, London",UK,SW1A 1AA,NULL
114,Tokyo,123-456-113,"123 Main St, Tokyo",Japan,100-0001,NULL
115,Tokyo,123-456-522,"123 Main St, Tokyo",Japan,100-0001,NULL
116,London,123-456-910,"123 Main St, London",UK,SW1A 1AA,NULL
117,New York,123-456-827,"123 Main St, New York",USA,10001,NULL
118,Berlin,123-456-741,"123 Main St, Berlin",Germany,10115,NULL
119,New York,123-456-522,"123 Main St, New York",USA,10001,NULL
12,Tokyo,123-456-394,"123 Main St, Tokyo",Japan,100-0001,NULL
120,Tokyo,123-456-707,"123 Main St, Tokyo",Japan,100-0001,NULL
121,Berlin,123-456-179,"123 Main St, Berlin",Germany,10115,NULL
122,London,123-456-448,"123 Main St, London",UK,SW1A 1AA,NULL
123,London,123-456-252,"123 Main St, London",UK,SW1A 1AA,NULL
124,Berlin,123-456-406,"123 Main St, Berlin",Germany,10115,NULL
125,Tokyo,123-456-624,"123 Main St, Tokyo",Japan,100-0001,NULL
126,London,123-456-999,"123 Main St, London",UK,SW1A 1AA,NULL
127,Berlin,123-456-983,"123 Main St, Berlin",Germany,10115,NULL
128,Tokyo,123-456-230,"123 Main St, Tokyo",Japan,100-0001,NULL
129,Paris,123-456-511,"123 Main St, Paris",France,75001,NULL
13,Berlin,123-456-357,"123 Main St, Berlin",Germany,10115,NULL
130,New York,123-456-391,"123 Main St, New York",USA,10001,NULL
131,Berlin,123-456-566,"123 Main St, Berlin",Germany,10115,NULL
132,Paris,123-456-657,"123 Main St, Paris",France,75001,NULL
133,Berlin,123-456-474,"123 Main St, Berlin",Germany,10115,NULL
134,New York,123-456-187,"123 Main St, New York",USA,10001,NULL
135,Paris,123-456-480,"123 Main St, Paris",France,75001,NULL
136,Paris,123-456-914,"123 Main St, Paris",France,75001,NULL
137,New York,123-456-366,"123 Main St, New York",USA,10001,NULL
138,New York,123-456-398,"123 Main St, New York",USA,10001,NULL
139,New York,123-456-134,"123 Main St, New York",USA,10001,NULL
14,Tokyo,123-456-568,"123 Main St, Tokyo",Japan,100-0001,NULL
140,Paris,123-456-731,"123 Main St, Paris",France,75001,NULL
141,New York,123-456-384,"123 Main St, New York",USA,10001,NULL
142,New York,123-456-566,"123 Main St, New York",USA,10001,NULL
143,Berlin,123-456-826,"123 Main St, Berlin",Germany,10115,NULL
144,Berlin,123-456-086,"123 Main St, Berlin",Germany,10115,NULL
145,Tokyo,123-456-886,"123 Main St, Tokyo",Japan,100-0001,NULL
146,Berlin,123-456-151,"123 Main St, Berlin",Germany,10115,NULL
147,Berlin,123-456-756,"123 Main St, Berlin",Germany,10115,NULL
148,Paris,123-456-590,"123 Main St, Paris",France,75001,NULL
149,London,123-456-067,"123 Main St, London",UK,SW1A 1AA,NULL
15,Tokyo,123-456-043,"123 Main St, Tokyo",Japan,100-0001,NULL
150,London,123-456-339,"123 Main St, London",UK,SW1A 1AA,NULL
151,Berlin,123-456-771,"123 Main St, Berlin",Germany,10115,NULL
152,New York,123-456-178,"123 Main St, New York",USA,10001,NULL
153,Paris,123-456-011,"123 Main St, Paris",France,75001,NULL
154,Tokyo,123-456-823,"123 Main St, Tokyo",Japan,100-0001,NULL
155,Berlin,123-456-272,"123 Main St, Berlin",Germany,10115,NULL
156,New York,123-456-691,"123 Main St, New York",USA,10001,NULL
157,Paris,123-456-254,"123 Main St, Paris",France,75001,NULL
158,New York,123-456-575,"123 Main St, New York",USA,10001,NULL
159,Berlin,123-456-095,"123 Main St, Berlin",Germany,10115,NULL
16,Tokyo,123-456-851,"123 Main St, Tokyo",Japan,100-0001,NULL
160,London,123-456-280,"123 Main St, London",UK,SW1A 1AA,NULL
161,Paris,123-456-087,"123 Main St, Paris",France,75001,NULL
162,Paris,123-456-888,"123 Main St, Paris",France,75001,NULL
163,New York,123-456-233,"123 Main St, New York",USA,10001,NULL
164,London,123-456-994,"123 Main St, London",UK,SW1A 1AA,NULL
165,London,123-456-279,"123 Main St, London",UK,SW1A 1AA,NULL
166,Tokyo,123-456-490,"123 Main St, Tokyo",Japan,100-0001,NULL
167,Berlin,123-456-412,"123 Main St, Berlin",Germany,10115,NULL
168,Tokyo,123-456-566,"123 Main St, Tokyo",Japan,100-0001,NULL
169,Paris,123-456-763,"123 Main St, Paris",France,75001,NULL
17,Tokyo,123-456-503,"123 Main St, Tokyo",Japan,100-0001,NULL
170,Tokyo,123-456-041,"123 Main St, Tokyo",Japan,100-0001,NULL
171,Paris,123-456-132,"123 Main St, Paris",France,75001,NULL
172,New York,123-456-148,"123 Main St, New York",USA,10001,NULL
173,New York,123-456-808,"123 Main St, New York",USA,10001,NULL
174,London,123-456-919,"123 Main St, London",UK,SW1A 1AA,NULL
175,New York,123-456-709,"123 Main St, New York",USA,10001,NULL
176,London,123-456-273,"123 Main St, London",UK,SW1A 1AA,NULL
177,New York,123-456-673,"123 Main St, New York",USA,10001,NULL
178,London,123-456-328,"123 Main St, London",UK,SW1A 1AA,NULL
179,Tokyo,123-456-529,"123 Main St, Tokyo",Japan,100-0001,NULL
18,Paris,123-456-500,"123 Main St, Paris",France,75001,NULL
180,Paris,123-456-642,"123 Main St, Paris",France,75001,NULL
181,Paris,123-456-804,"123 Main St, Paris",France,75001,NULL
182,London,123-456-426,"123 Main St, London",UK,SW1A 1AA,NULL
183,London,123-456-434,"123 Main St, London",UK,SW1A 1AA,NULL
184,Tokyo,123-456-949,"123 Main St, Tokyo",Japan,100-0001,NULL
185,London,123-456-155,"123 Main St, London",UK,SW1A 1AA,NULL
186,New York,123-456-715,"123 Main St, New York",USA,10001,NULL
187,Paris,123-456-901,"123 Main St, Paris",France,75001,NULL
188,Tokyo,123-456-525,"123 Main St, Tokyo",Japan,100-0001,NULL
189,New York,123-456-876,"123 Main St, New York",USA,10001,NULL
19,Tokyo,123-456-231,"123 Main St, Tokyo",Japan,100-0001,NULL
190,London,123-456-018,"123 Main St, London",UK,SW1A 1AA,NULL
191,Berlin,123-456-827,"123 Main St, Berlin",Germany,10115,NULL
192,Paris,123-456-224,"123 Main St, Paris",France,75001,NULL
193,London,123-456-029,"123 Main St, London",UK,SW1A 1AA,NULL
194,Berlin,123-456-048,"123 Main St, Berlin",Germany,10115,NULL
195,Paris,123-456-877,"123 Main St, Paris",France,75001,NULL
196,Paris,123-456-717,"123 Main St, Paris",France,75001,NULL
197,Berlin,123-456-486,"123 Main St, Berlin",Germany,10115,NULL
198,London,123-456-367,"123 Main St, London",UK,SW1A 1AA,NULL
199,New York,123-456-199,"123 Main St, New York",USA,10001,NULL
2,Tokyo,123-456-469,"123 Main St, Tokyo",Japan,100-0001,NULL
20,Paris,123-456-812,"123 Main St, Paris",France,75001,NULL
200,New York,123-456-020,"123 Main St, New York",USA,10001,NULL
201,London,123-456-556,"123 Main St, London",UK,SW1A 1AA,NULL
202,Berlin,123-456-944,"123 Main St, Berlin",Germany,10115,NULL
203,Berlin,123-456-647,"123 Main St, Berlin",Germany,10115,NULL
204,London,123-456-869,"123 Main St, London",UK,SW1A 1AA,NULL
205,London,123-456-963,"123 Main St, London",UK,SW1A 1AA,NULL
206,New York,123-456-144,"123 Main St, New York",USA,10001,NULL
207,London,123-456-362,"123 Main St, London",UK,SW1A 1AA,NULL
208,Berlin,123-456-091,"123 Main St, Berlin",Germany,10115,NULL
209,Tokyo,123-456-501,"123 Main St, Tokyo",Japan,100-0001,NULL
21,Berlin,123-456-537,"123 Main St, Berlin",Germany,10115,NULL
210,Berlin,123-456-357,"123 Main St, Berlin",Germany,10115,NULL
211,Berlin,123-456-213,"123 Main St, Berlin",Germany,10115,NULL
212,London,123-456-807,"123 Main St, London",UK,SW1A 1AA,NULL
213,Tokyo,123-456-823,"123 Main St, Tokyo",Japan,100-0001,NULL
214,New York,123-456-992,"123 Main St, New York",USA,10001,NULL
215,New York,123-456-068,"123 Main St, New York",USA,10001,NULL
216,New York,123-456-818,"123 Main St, New York",USA,10001,NULL
217,London,123-456-409,"123 Main St, London",UK,SW1A 1AA,NULL
218,Paris,123-456-669,"123 Main St, Paris",France,75001,NULL
219,Tokyo,123-456-678,"123 Main St, Tokyo",Japan,100-0001,NULL
22,Paris,123-456-697,"123 Main St, Paris",France,75001,NULL
220,Paris,123-456-673,"123 Main St, Paris",France,75001,NULL
221,London,123-456-761,"123 Main St, London",UK,SW1A 1AA,NULL
222,Paris,123-456-398,"123 Main St, Paris",France,75001,NULL
223,Berlin,123-456-785,"123 Main St, Berlin",Germany,10115,NULL
224,Berlin,123-456-538,"123 Main St, Berlin",Germany,10115,NULL
225,New York,123-456-675,"123 Main St, New York",USA,10001,NULL
226,Paris,123-456-372,"123 Main St, Paris",France,75001,NULL
227,Paris,123-456-974,"123 Main St, Paris",France,75001,NULL
228,Paris,123-456-440,"123 Main St, Paris",France,75001,NULL
229,Paris,123-456-706,"123 Main St, Paris",France,75001,NULL
23,Berlin,123-456-779,"123 Main St, Berlin",Germany,10115,NULL
230,New York,123-456-838,"123 Main St, New York",USA,10001,NULL
231,New York,123-456-214,"123 Main St, New York",USA,10001,NULL
232,Paris,123-456-375,"123 Main St, Paris",France,75001,NULL
233,London,123-456-114,"123 Main St, London",UK,SW1A 1AA,NULL
234,Berlin,123-456-132,"123 Main St, Berlin",Germany,10115,NULL
235,Berlin,123-456-166,"123 Main St, Berlin",Germany,10115,NULL
236,Berlin,123-456-580,"123 Main St, Berlin",Germany,10115,NULL
237,London,123-456-695,"123 Main St, London",UK,SW1A 1AA,NULL
238,Berlin,123-456-856,"123 Main St, Berlin",Germany,10115,NULL
239,Paris,123-456-629,"123 Main St, Paris",France,75001,NULL
24,Berlin,123-456-659,"123 Main St, Berlin",Germany,10115,NULL
240,Tokyo,123-456-473,"123 Main St, Tokyo",Japan,100-0001,NULL
241,Berlin,123-456-926,"123 Main St, Berlin",Germany,10115,NULL
242,New York,123-456-886,"123 Main St, New York",USA,10001,NULL
243,London,123-456-023,"123 Main St, London",UK,SW1A 1AA,NULL
244,Paris,123-456-983,"123 Main St, Paris",France,75001,NULL
245,Berlin,123-456-163,"123 Main St, Berlin",Germany,10115,NULL
246,New York,123-456-424,"123 Main St, New York",USA,10001,NULL
247,Tokyo,123-456-555,"123 Main St, Tokyo",Japan,100-0001,NULL
248,New York,123-456-721,"123 Main St, New York",USA,10001,NULL
249,Berlin,123-456-048,"123 Main St, Berlin",Germany,10115,NULL
25,London,123-456-925,"123 Main St, London",UK,SW1A 1AA,NULL
250,Paris,123-456-157,"123 Main St, Paris",France,75001,NULL
251,Berlin,123-456-652,"123 Main St, Berlin",Germany,10115,NULL
252,Paris,123-456-530,"123 Main St, Paris",France,75001,NULL
253,New York,123-456-965,"123 Main St, New York",USA,10001,NULL
254,New York,123-456-501,"123 Main St, New York",USA,10001,NULL
255,New York,123-456-187,"123 Main St, New York",USA,10001,NULL
256,Paris,123-456-569,"123 Main St, Paris",France,75001,NULL
257,Tokyo,123-456-959,"123 Main St, Tokyo",Japan,100-0001,NULL
258,Berlin,123-456-443,"123 Main St, Berlin",Germany,10115,NULL
259,Berlin,123-456-463,"123 Main St, Berlin",Germany,10115,NULL
26,Berlin,123-456-280,"123 Main St, Berlin",Germany,10115,NULL
260,Tokyo,123-456-129,"123 Main St, Tokyo",Japan,100-0001,NULL
261,Paris,123-456-514,"123 Main St, Paris",France,75001,NULL
262,Berlin,123-456-985,"123 Main St, Berlin",Germany,10115,NULL
263,New York,123-456-255,"123 Main St, New York",USA,10001,NULL
264,Tokyo,123-456-636,"123 Main St, Tokyo",Japan,100-0001,NULL
265,Berlin,123-456-031,"123 Main St, Berlin",Germany,10115,NULL
266,Berlin,123-456-560,"123 Main St, Berlin",Germany,10115,NULL
267,Paris,123-456-606,"123 Main St, Paris",France,75001,NULL
268,Paris,123-456-062,"123 Main St, Paris",France,75001,NULL
269,Berlin,123-456-629,"123 Main St, Berlin",Germany,10115,NULL
27,Paris,123-456-606,"123 Main St, Paris",France,75001,NULL
270,New York,123-456-545,"123 Main St, New York",USA,10001,NULL
271,Berlin,123-456-462,"123 Main St, Berlin",Germany,10115,NULL
272,Paris,123-456-433,"123 Main St, Paris",France,75001,NULL
273,New York,123-456-035,"123 Main St, New York",USA,10001,NULL
274,London,123-456-721,"123 Main St, London",UK,SW1A 1AA,NULL
275,Tokyo,123-456-101,"123 Main St, Tokyo",Japan,100-0001,NULL
276,Berlin,123-456-262,"123 Main St, Berlin",Germany,10115,NULL
277,Berlin,123-456-472,"123 Main St, Berlin",Germany,10115,NULL
278,New York,123-456-628,"123 Main St, New York",USA,10001,NULL
279,Paris,123-456-142,"123 Main St, Paris",France,75001,NULL
28,New York,123-456-417,"123 Main St, New York",USA,10001,NULL
280,Berlin,123-456-435,"123 Main St, Berlin",Germany,10115,NULL
281,Berlin,123-456-581,"123 Main St, Berlin",Germany,10115,NULL
282,Berlin,123-456-184,"123 Main St, Berlin",Germany,10115,NULL
283,Tokyo,123-456-264,"123 Main St, Tokyo",Japan,100-0001,NULL
284,Paris,123-456-014,"123 Main St, Paris",France,75001,NULL
285,Paris,123-456-880,"123 Main St, Paris",France,75001,NULL
286,Berlin,123-456-123,"123 Main St, Berlin",Germany,10115,NULL
287,Tokyo,123-456-398,"123 Main St, Tokyo",Japan,100-0001,NULL
288,Tokyo,123-456-176,"123 Main St, Tokyo",Japan,100-0001,NULL
289,New York,123-456-900,"123 Main St, New York",USA,10001,NULL
29,London,123-456-030,"123 Main St, London",UK,SW1A 1AA,NULL
290,London,123-456-293,"123 Main St, London",UK,SW1A 1AA,NULL
291,Paris,123-456-498,"123 Main St, Paris",France,75001,NULL
292,Berlin,123-456-468,"123 Main St, Berlin",Germany,10115,NULL
293,Berlin,123-456-621,"123 Main St, Berlin",Germany,10115,NULL
294,New York,123-456-896,"123 Main St, New York",USA,10001,NULL
295,New York,123-456-748,"123 Main St, New York",USA,10001,NULL
296,New York,123-456-120,"123 Main St, New York",USA,10001,NULL
297,Paris,123-456-823,"123 Main St, Paris",France,75001,NULL
298,Berlin,123-456-987,"123 Main St, Berlin",Germany,10115,NULL
299,London,123-456-322,"123 Main St, London",UK,SW1A 1AA,NULL
3,Berlin,123-456-602,"123 Main St, Berlin",Germany,10115,NULL
30,New York,123-456-160,"123 Main St, New York",USA,10001,NULL
300,Paris,123-456-810,"123 Main St, Paris",France,75001,NULL
301,Paris,123-456-745,"123 Main St, Paris",France,75001,NULL
302,Tokyo,123-456-401,"123 Main St, Tokyo",Japan,100-0001,NULL
303,Berlin,123-456-400,"123 Main St, Berlin",Germany,10115,NULL
304,New York,123-456-255,"123 Main St, New York",USA,10001,NULL
305,Tokyo,123-456-926,"123 Main St, Tokyo",Japan,100-0001,NULL
306,Berlin,123-456-041,"123 Main St, Berlin",Germany,10115,NULL
307,New York,123-456-887,"123 Main St, New York",USA,10001,NULL
308,Berlin,123-456-245,"123 Main St, Berlin",Germany,10115,NULL
309,Paris,123-456-723,"123 Main St, Paris",France,75001,NULL
31,Paris,123-456-989,"123 Main St, Paris",France,75001,NULL
310,London,123-456-760,"123 Main St, London",UK,SW1A 1AA,NULL
311,Tokyo,123-456-423,"123 Main St, Tokyo",Japan,100-0001,NULL
312,Tokyo,123-456-325,"123 Main St, Tokyo",Japan,100-0001,NULL
313,New York,123-456-452,"123 Main St, New York",USA,10001,NULL
314,New York,123-456-414,"123 Main St, New York",USA,10001,NULL
315,New York,123-456-172,"123 Main St, New York",USA,10001,NULL
316,New York,123-456-168,"123 Main St, New York",USA,10001,NULL
317,Berlin,123-456-815,"123 Main St, Berlin",Germany,10115,NULL
318,Berlin,123-456-808,"123 Main St, Berlin",Germany,10115,NULL
319,London,123-456-626,"123 Main St, London",UK,SW1A 1AA,NULL
32,London,123-456-537,"123 Main St, London",UK,SW1A 1AA,NULL
320,Tokyo,123-456-569,"123 Main St, Tokyo",Japan,100-0001,NULL
321,London,123-456-959,"123 Main St, London",UK,SW1A 1AA,NULL
322,Berlin,123-456-842,"123 Main St, Berlin",Germany,10115,NULL
323,Paris,123-456-418,"123 Main St, Paris",France,75001,NULL
324,London,123-456-078,"123 Main St, London",UK,SW1A 1AA,NULL
325,Berlin,123-456-904,"123 Main St, Berlin",Germany,10115,NULL
326,Paris,123-456-099,"123 Main St, Paris",France,75001,NULL
327,Paris,123-456-263,"123 Main St, Paris",France,75001,NULL
328,Berlin,123-456-008,"123 Main St, Berlin",Germany,10115,NULL
329,New York,123-456-027,"123 Main St, New York",USA,10001,NULL
33,Berlin,123-456-043,"123 Main St, Berlin",Germany,10115,NULL
330,New York,123-456-852,"123 Main St, New York",USA,10001,NULL
331,London,123-456-333,"123 Main St, London",UK,SW1A 1AA,NULL
332,Berlin,123-456-032,"123 Main St, Berlin",Germany,10115,NULL
333,New York,123-456-545,"123 Main St, New York",USA,10001,NULL
334,Tokyo,123-456-036,"123 Main St, Tokyo",Japan,100-0001,NULL
335,Paris,123-456-098,"123 Main St, Paris",France,75001,NULL
336,London,123-456-467,"123 Main St, London",UK,SW1A 1AA,NULL
337,New York,123-456-857,"123 Main St, New York",USA,10001,NULL
338,Paris,123-456-340,"123 Main St, Paris",France,75001,NULL
339,Berlin,123-456-139,"123 Main St, Berlin",Germany,10115,NULL
34,New York,123-456-039,"123 Main St, New York",USA,10001,NULL
340,Paris,123-456-722,"123 Main St, Paris",France,75001,NULL
341,New York,123-456-128,"123 Main St, New York",USA,10001,NULL
342,Berlin,123-456-594,"123 Main St, Berlin",Germany,10115,NULL
343,London,123-456-672,"123 Main St, London",UK,SW1A 1AA,NULL
344,Tokyo,123-456-172,"123 Main St, Tokyo",Japan,100-0001,NULL
345,Berlin,123-456-828,"123 Main St, Berlin",Germany,10115,NULL
346,New York,123-456-991,"123 Main St, New York",USA,10001,NULL
347,Paris,123-456-620,"123 Main St, Paris",France,75001,NULL
348,New York,123-456-143,"123 Main St, New York",USA,10001,NULL
349,Tokyo,123-456-423,"123 Main St, Tokyo",Japan,100-0001,NULL
35,Tokyo,123-456-420,"123 Main St, Tokyo",Japan,100-0001,NULL
350,Tokyo,123-456-055,"123 Main St, Tokyo",Japan,100-0001,NULL
351,Paris,123-456-574,"123 Main St, Paris",France,75001,NULL
352,Berlin,123-456-497,"123 Main St, Berlin",Germany,10115,NULL
353,Paris,123-456-298,"123 Main St, Paris",France,75001,NULL
354,Berlin,123-456-769,"123 Main St, Berlin",Germany,10115,NULL
355,New York,123-456-848,"123 Main St, New York",USA,10001,NULL
356,Tokyo,123-456-907,"123 Main St, Tokyo",Japan,100-0001,NULL
357,Tokyo,123-456-711,"123 Main St, Tokyo",Japan,100-0001,NULL
358,Tokyo,123-456-390,"123 Main St, Tokyo",Japan,100-0001,NULL
359,London,123-456-407,"123 Main St, London",UK,SW1A 1AA,NULL
36,Paris,123-456-284,"123 Main St, Paris",France,75001,NULL
360,Tokyo,123-456-939,"123 Main St, Tokyo",Japan,100-0001,NULL
361,Paris,123-456-044,"123 Main St, Paris",France,75001,NULL
362,Berlin,123-456-346,"123 Main St, Berlin",Germany,10115,NULL
363,Paris,123-456-185,"123 Main St, Paris",France,75001,NULL
364,London,123-456-210,"123 Main St, London",UK,SW1A 1AA,NULL
365,Tokyo,123-456-997,"123 Main St, Tokyo",Japan,100-0001,NULL
366,New York,123-456-404,"123 Main St, New York",USA,10001,NULL
367,London,123-456-883,"123 Main St, London",UK,SW1A 1AA,NULL
368,London,123-456-371,"123 Main St, London",UK,SW1A 1AA,NULL
369,New York,123-456-659,"123 Main St, New York",USA,10001,NULL
37,Berlin,123-456-963,"123 Main St, Berlin",Germany,10115,NULL
370,Berlin,123-456-816,"123 Main St, Berlin",Germany,10115,NULL
371,London,123-456-085,"123 Main St, London",UK,SW1A 1AA,NULL
372,Paris,123-456-444,"123 Main St, Paris",France,75001,NULL
373,Tokyo,123-456-196,"123 Main St, Tokyo",Japan,100-0001,NULL
374,Paris,123-456-836,"123 Main St, Paris",France,75001,NULL
375,Tokyo,123-456-995,"123 Main St, Tokyo",Japan,100-0001,NULL
376,Tokyo,123-456-555,"123 Main St, Tokyo",Japan,100-0001,NULL
377,London,123-456-557,"123 Main St, London",UK,SW1A 1AA,NULL
378,Tokyo,123-456-479,"123 Main St, Tokyo",Japan,100-0001,NULL
379,Tokyo,123-456-115,"123 Main St, Tokyo",Japan,100-0001,NULL
38,Tokyo,123-456-612,"123 Main St, Tokyo",Japan,100-0001,NULL
380,Paris,123-456-537,"123 Main St, Paris",France,75001,NULL
381,London,123-456-486,"123 Main St, London",UK,SW1A 1AA,NULL
382,Berlin,123-456-598,"123 Main St, Berlin",Germany,10115,NULL
383,Paris,123-456-426,"123 Main St, Paris",France,75001,NULL
384,Berlin,123-456-606,"123 Main St, Berlin",Germany,10115,NULL
385,New York,123-456-310,"123 Main St, New York",USA,10001,NULL
386,Berlin,123-456-069,"123 Main St, Berlin",Germany,10115,NULL
387,New York,123-456-495,"123 Main St, New York",USA,10001,NULL
388,Tokyo,123-456-739,"123 Main St, Tokyo",Japan,100-0001,NULL
389,Paris,123-456-538,"123 Main St, Paris",France,75001,NULL
39,New York,123-456-485,"123 Main St, New York",USA,10001,NULL
390,Tokyo,123-456-438,"123 Main St, Tokyo",Japan,100-0001,NULL
391,London,123-456-855,"123 Main St, London",UK,SW1A 1AA,NULL
392,New York,123-456-270,"123 Main St, New York",USA,10001,NULL
393,New York,123-456-992,"123 Main St, New York",USA,10001,NULL
394,Tokyo,123-456-744,"123 Main St, Tokyo",Japan,100-0001,NULL
395,Tokyo,123-456-922,"123 Main St, Tokyo",Japan,100-0001,NULL
396,Tokyo,123-456-325,"123 Main St, Tokyo",Japan,100-0001,NULL
397,Tokyo,123-456-467,"123 Main St, Tokyo",Japan,100-0001,NULL
398,New York,123-456-624,"123 Main St, New York",USA,10001,NULL
399,Paris,123-456-262,"123 Main St, Paris",France,75001,NULL
4,New York,123-456-007,"123 Main St, New York",USA,10001,NULL
40,New York,123-456-031,"123 Main St, New York",USA,10001,NULL
400,Tokyo,123-456-165,"123 Main St, Tokyo",Japan,100-0001,NULL
401,Tokyo,123-456-353,"123 Main St, Tokyo",Japan,100-0001,NULL
402,Tokyo,123-456-617,"123 Main St, Tokyo",Japan,100-0001,NULL
403,Berlin,123-456-140,"123 Main St, Berlin",Germany,10115,NULL
404,Paris,123-456-056,"123 Main St, Paris",France,75001,NULL
405,Berlin,123-456-415,"123 Main St, Berlin",Germany,10115,NULL
406,New York,123-456-426,"123 Main St, New York",USA,10001,NULL
407,Tokyo,123-456-780,"123 Main St, Tokyo",Japan,100-0001,NULL
408,London,123-456-485,"123 Main St, London",UK,SW1A 1AA,NULL
409,Berlin,123-456-088,"123 Main St, Berlin",Germany,10115,NULL
41,London,123-456-889,"123 Main St, London",UK,SW1A 1AA,NULL
410,London,123-456-809,"123 Main St, London",UK,SW1A 1AA,NULL
411,Paris,123-456-251,"123 Main St, Paris",France,75001,NULL
412,New York,123-456-764,"123 Main St, New York",USA,10001,NULL
413,Tokyo,123-456-123,"123 Main St, Tokyo",Japan,100-0001,NULL
414,Berlin,123-456-600,"123 Main St, Berlin",Germany,10115,NULL
415,London,123-456-211,"123 Main St, London",UK,SW1A 1AA,NULL
416,Berlin,123-456-773,"123 Main St, Berlin",Germany,10115,NULL
417,Tokyo,123-456-030,"123 Main St, Tokyo",Japan,100-0001,NULL
418,Berlin,123-456-329,"123 Main St, Berlin",Germany,10115,NULL
419,Tokyo,123-456-821,"123 Main St, Tokyo",Japan,100-0001,NULL
42,Paris,123-456-011,"123 Main St, Paris",France,75001,NULL
420,London,123-456-624,"123 Main St, London",UK,SW1A 1AA,NULL
421,Tokyo,123-456-079,"123 Main St, Tokyo",Japan,100-0001,NULL
422,Tokyo,123-456-232,"123 Main St, Tokyo",Japan,100-0001,NULL
423,Paris,123-456-083,"123 Main St, Paris",France,75001,NULL
424,Paris,123-456-998,"123 Main St, Paris",France,75001,NULL
425,Berlin,123-456-854,"123 Main St, Berlin",Germany,10115,NULL
426,Paris,123-456-552,"123 Main St, Paris",France,75001,NULL
427,Paris,123-456-818,"123 Main St, Paris",France,75001,NULL
428,London,123-456-114,"123 Main St, London",UK,SW1A 1AA,NULL
429,New York,123-456-101,"123 Main St, New York",USA,10001,NULL
43,New York,123-456-422,"123 Main St, New York",USA,10001,NULL
430,Berlin,123-456-982,"123 Main St, Berlin",Germany,10115,NULL
431,Berlin,123-456-183,"123 Main St, Berlin",Germany,10115,NULL
432,Paris,123-456-274,"123 Main St, Paris",France,75001,NULL
433,Paris,123-456-376,"123 Main St, Paris",France,75001,NULL
434,Berlin,123-456-304,"123 Main St, Berlin",Germany,10115,NULL
435,Berlin,123-456-220,"123 Main St, Berlin",Germany,10115,NULL
436,Paris,123-456-774,"123 Main St, Paris",France,75001,NULL
437,Tokyo,123-456-125,"123 Main St, Tokyo",Japan,100-0001,NULL
438,Tokyo,123-456-624,"123 Main St, Tokyo",Japan,100-0001,NULL
439,Berlin,123-456-595,"123 Main St, Berlin",Germany,10115,NULL
44,Berlin,123-456-970,"123 Main St, Berlin",Germany,10115,NULL
440,Berlin,123-456-629,"123 Main St, Berlin",Germany,10115,NULL
441,Paris,123-456-396,"123 Main St, Paris",France,75001,NULL
442,Paris,123-456-609,"123 Main St, Paris",France,75001,NULL
443,New York,123-456-490,"123 Main St, New York",USA,10001,NULL
444,London,123-456-268,"123 Main St, London",UK,SW1A 1AA,NULL
445,Berlin,123-456-739,"123 Main St, Berlin",Germany,10115,NULL
446,Paris,123-456-950,"123 Main St, Paris",France,75001,NULL
447,Berlin,123-456-598,"123 Main St, Berlin",Germany,10115,NULL
448,Paris,123-456-030,"123 Main St, Paris",France,75001,NULL
449,Paris,123-456-877,"123 Main St, Paris",France,75001,NULL
45,Tokyo,123-456-783,"123 Main St, Tokyo",Japan,100-0001,NULL
450,Paris,123-456-326,"123 Main St, Paris",France,75001,NULL
451,London,123-456-362,"123 Main St, London",UK,SW1A 1AA,NULL
452,New York,123-456-267,"123 Main St, New York",USA,10001,NULL
453,New York,123-456-825,"123 Main St, New York",USA,10001,NULL
454,Berlin,123-456-208,"123 Main St, Berlin",Germany,10115,NULL
455,Berlin,123-456-384,"123 Main St, Berlin",Germany,10115,NULL
456,Paris,123-456-326,"123 Main St, Paris",France,75001,NULL
457,Berlin,123-456-311,"123 Main St, Berlin",Germany,10115,NULL
458,New York,123-456-902,"123 Main St, New York",USA,10001,NULL
459,Paris,123-456-179,"123 Main St, Paris",France,75001,NULL
46,Berlin,123-456-443,"123 Main St, Berlin",Germany,10115,NULL
460,Tokyo,123-456-265,"123 Main St, Tokyo",Japan,100-0001,NULL
461,New York,123-456-989,"123 Main St, New York",USA,10001,NULL
462,Berlin,123-456-300,"123 Main St, Berlin",Germany,10115,NULL
463,London,123-456-934,"123 Main St, London",UK,SW1A 1AA,NULL
464,London,123-456-538,"123 Main St, London",UK,SW1A 1AA,NULL
465,Berlin,123-456-038,"123 Main St, Berlin",Germany,10115,NULL
466,New York,123-456-404,"123 Main St, New York",USA,10001,NULL
467,London,123-456-250,"123 Main St, London",UK,SW1A 1AA,NULL
468,New York,123-456-408,"123 Main St, New York",USA,10001,NULL
469,Paris,123-456-104,"123 Main St, Paris",France,75001,NULL
47,Paris,123-456-583,"123 Main St, Paris",France,75001,NULL
470,Berlin,123-456-224,"123 Main St, Berlin",Germany,10115,NULL
471,London,123-456-755,"123 Main St, London",UK,SW1A 1AA,NULL
472,London,123-456-647,"123 Main St, London",UK,SW1A 1AA,NULL
473,Paris,123-456-261,"123 Main St, Paris",France,75001,NULL
474,New York,123-456-370,"123 Main St, New York",USA,10001,NULL
475,Tokyo,123-456-558,"123 Main St, Tokyo",Japan,100-0001,NULL
476,Paris,123-456-482,"123 Main St, Paris",France,75001,NULL
477,Paris,123-456-565,"123 Main St, Paris",France,75001,NULL
478,Berlin,123-456-820,"123 Main St, Berlin",Germany,10115,NULL
479,Paris,123-456-377,"123 Main St, Paris",France,75001,NULL
48,London,123-456-514,"123 Main St, London",UK,SW1A 1AA,NULL
480,New York,123-456-605,"123 Main St, New York",USA,10001,NULL
481,London,123-456-878,"123 Main St, London",UK,SW1A 1AA,NULL
482,Paris,123-456-389,"123 Main St, Paris",France,75001,NULL
483,London,123-456-394,"123 Main St, London",UK,SW1A 1AA,NULL
484,London,123-456-861,"123 Main St, London",UK,SW1A 1AA,NULL
485,Tokyo,123-456-736,"123 Main St, Tokyo",Japan,100-0001,NULL
486,Tokyo,123-456-112,"123 Main St, Tokyo",Japan,100-0001,NULL
487,Berlin,123-456-688,"123 Main St, Berlin",Germany,10115,NULL
488,New York,123-456-234,"123 Main St, New York",USA,10001,NULL
489,Paris,123-456-017,"123 Main St, Paris",France,75001,NULL
49,London,123-456-303,"123 Main St, London",UK,SW1A 1AA,NULL
490,Paris,123-456-269,"123 Main St, Paris",France,75001,NULL
491,Tokyo,123-456-684,"123 Main St, Tokyo",Japan,100-0001,NULL
492,New York,123-456-059,"123 Main St, New York",USA,10001,NULL
493,Tokyo,123-456-272,"123 Main St, Tokyo",Japan,100-0001,NULL
494,New York,123-456-188,"123 Main St, New York",USA,10001,NULL
495,Berlin,123-456-504,"123 Main St, Berlin",Germany,10115,NULL
496,London,123-456-940,"123 Main St, London",UK,SW1A 1AA,NULL
497,Berlin,123-456-712,"123 Main St, Berlin",Germany,10115,NULL
498,Paris,123-456-844,"123 Main St, Paris",France,75001,NULL
499,New York,123-456-131,"123 Main St, New York",USA,10001,NULL
5,New York,123-456-925,"123 Main St, New York",USA,10001,NULL
50,Paris,123-456-148,"123 Main St, Paris",France,75001,NULL
500,New York,123-456-136,"123 Main St, New York",USA,10001,NULL
501,Berlin,123-456-874,"123 Main St, Berlin",Germany,10115,NULL
502,Paris,123-456-039,"123 Main St, Paris",France,75001,NULL
503,Berlin,123-456-000,"123 Main St, Berlin",Germany,10115,NULL
504,Berlin,123-456-750,"123 Main St, Berlin",Germany,10115,NULL
505,London,123-456-184,"123 Main St, London",UK,SW1A 1AA,NULL
506,Paris,123-456-148,"123 Main St, Paris",France,75001,NULL
507,Paris,123-456-307,"123 Main St, Paris",France,75001,NULL
508,New York,123-456-603,"123 Main St, New York",USA,10001,NULL
509,Tokyo,123-456-618,"123 Main St, Tokyo",Japan,100-0001,NULL
51,New York,123-456-907,"123 Main St, New York",USA,10001,NULL
510,Paris,123-456-919,"123 Main St, Paris",France,75001,NULL
511,Tokyo,123-456-096,"123 Main St, Tokyo",Japan,100-0001,NULL
512,Paris,123-456-596,"123 Main St, Paris",France,75001,NULL
513,Tokyo,123-456-808,"123 Main St, Tokyo",Japan,100-0001,NULL
514,Paris,123-456-234,"123 Main St, Paris",France,75001,NULL
515,New York,123-456-464,"123 Main St, New York",USA,10001,NULL
516,London,123-456-489,"123 Main St, London",UK,SW1A 1AA,NULL
517,Paris,123-456-039,"123 Main St, Paris",France,75001,NULL
518,London,123-456-796,"123 Main St, London",UK,SW1A 1AA,NULL
519,London,123-456-275,"123 Main St, London",UK,SW1A 1AA,NULL
52,Tokyo,123-456-730,"123 Main St, Tokyo",Japan,100-0001,NULL
520,London,123-456-892,"123 Main St, London",UK,SW1A 1AA,NULL
521,New York,123-456-294,"123 Main St, New York",USA,10001,NULL
522,London,123-456-533,"123 Main St, London",UK,SW1A 1AA,NULL
523,Paris,123-456-782,"123 Main St, Paris",France,75001,NULL
524,Paris,123-456-493,"123 Main St, Paris",France,75001,NULL
525,New York,123-456-494,"123 Main St, New York",USA,10001,NULL
526,London,123-456-283,"123 Main St, London",UK,SW1A 1AA,NULL
527,London,123-456-942,"123 Main St, London",UK,SW1A 1AA,NULL
528,New York,123-456-300,"123 Main St, New York",USA,10001,NULL
529,Paris,123-456-204,"123 Main St, Paris",France,75001,NULL
53,Tokyo,123-456-957,"123 Main St, Tokyo",Japan,100-0001,NULL
530,Tokyo,123-456-706,"123 Main St, Tokyo",Japan,100-0001,NULL
531,Tokyo,123-456-905,"123 Main St, Tokyo",Japan,100-0001,NULL
532,London,123-456-351,"123 Main St, London",UK,SW1A 1AA,NULL
533,London,123-456-872,"123 Main St, London",UK,SW1A 1AA,NULL
534,London,123-456-077,"123 Main St, London",UK,SW1A 1AA,NULL
535,Berlin,123-456-602,"123 Main St, Berlin",Germany,10115,NULL
536,Paris,123-456-274,"123 Main St, Paris",France,75001,NULL
537,London,123-456-443,"123 Main St, London",UK,SW1A 1AA,NULL
538,London,123-456-185,"123 Main St, London",UK,SW1A 1AA,NULL
539,New York,123-456-264,"123 Main St, New York",USA,10001,NULL
54,London,123-456-261,"123 Main St, London",UK,SW1A 1AA,NULL
540,Berlin,123-456-802,"123 Main St, Berlin",Germany,10115,NULL
541,Berlin,123-456-790,"123 Main St, Berlin",Germany,10115,NULL
542,Berlin,123-456-540,"123 Main St, Berlin",Germany,10115,NULL
543,Paris,123-456-386,"123 Main St, Paris",France,75001,NULL
544,New York,123-456-128,"123 Main St, New York",USA,10001,NULL
545,New York,123-456-231,"123 Main St, New York",USA,10001,NULL
546,Berlin,123-456-421,"123 Main St, Berlin",Germany,10115,NULL
547,Paris,123-456-667,"123 Main St, Paris",France,75001,NULL
548,Berlin,123-456-151,"123 Main St, Berlin",Germany,10115,NULL
549,Berlin,123-456-534,"123 Main St, Berlin",Germany,10115,NULL
55,New York,123-456-170,"123 Main St, New York",USA,10001,NULL
550,Berlin,123-456-222,"123 Main St, Berlin",Germany,10115,NULL
551,New York,123-456-247,"123 Main St, New York",USA,10001,NULL
552,Berlin,123-456-010,"123 Main St, Berlin",Germany,10115,NULL
553,London,123-456-353,"123 Main St, London",UK,SW1A 1AA,NULL
554,Tokyo,123-456-547,"123 Main St, Tokyo",Japan,100-0001,NULL
555,Berlin,123-456-797,"123 Main St, Berlin",Germany,10115,NULL
556,Berlin,123-456-471,"123 Main St, Berlin",Germany,10115,NULL
557,London,123-456-477,"123 Main St, London",UK,SW1A 1AA,NULL
558,New York,123-456-275,"123 Main St, New York",USA,10001,NULL
559,Berlin,123-456-434,"123 Main St, Berlin",Germany,10115,NULL
56,Paris,123-456-557,"123 Main St, Paris",France,75001,NULL
560,Berlin,123-456-659,"123 Main St, Berlin",Germany,10115,NULL
561,London,123-456-327,"123 Main St, London",UK,SW1A 1AA,NULL
562,London,123-456-401,"123 Main St, London",UK,SW1A 1AA,NULL
563,Berlin,123-456-344,"123 Main St, Berlin",Germany,10115,NULL
564,Berlin,123-456-991,"123 Main St, Berlin",Germany,10115,NULL
565,Paris,123-456-328,"123 Main St, Paris",France,75001,NULL
566,London,123-456-371,"123 Main St, London",UK,SW1A 1AA,NULL
567,London,123-456-975,"123 Main St, London",UK,SW1A 1AA,NULL
568,London,123-456-664,"123 Main St, London",UK,SW1A 1AA,NULL
569,Berlin,123-456-838,"123 Main St, Berlin",Germany,10115,NULL
57,Berlin,123-456-869,"123 Main St, Berlin",Germany,10115,NULL
570,Tokyo,123-456-288,"123 Main St, Tokyo",Japan,100-0001,NULL
571,New York,123-456-201,"123 Main St, New York",USA,10001,NULL
572,Tokyo,123-456-995,"123 Main St, Tokyo",Japan,100-0001,NULL
573,London,123-456-585,"123 Main St, London",UK,SW1A 1AA,NULL
574,London,123-456-254,"123 Main St, London",UK,SW1A 1AA,NULL
575,Tokyo,123-456-163,"123 Main St, Tokyo",Japan,100-0001,NULL
576,London,123-456-030,"123 Main St, London",UK,SW1A 1AA,NULL
577,Tokyo,123-456-260,"123 Main St, Tokyo",Japan,100-0001,NULL
578,London,123-456-638,"123 Main St, London",UK,SW1A 1AA,NULL
579,New York,123-456-870,"123 Main St, New York",USA,10001,NULL
58,Berlin,123-456-309,"123 Main St, Berlin",Germany,10115,NULL
580,Berlin,123-456-725,"123 Main St, Berlin",Germany,10115,NULL
581,Tokyo,123-456-955,"123 Main St, Tokyo",Japan,100-0001,NULL
582,Berlin,123-456-812,"123 Main St, Berlin",Germany,10115,NULL
583,New York,123-456-389,"123 Main St, New York",USA,10001,NULL
584,New York,123-456-436,"123 Main St, New York",USA,10001,NULL
585,New York,123-456-360,"123 Main St, New York",USA,10001,NULL
586,Paris,123-456-767,"123 Main St, Paris",France,75001,NULL
587,New York,123-456-921,"123 Main St, New York",USA,10001,NULL
588,Tokyo,123-456-737,"123 Main St, Tokyo",Japan,100-0001,NULL
589,New York,123-456-196,"123 Main St, New York",USA,10001,NULL
59,New York,123-456-703,"123 Main St, New York",USA,10001,NULL
590,London,123-456-149,"123 Main St, London",UK,SW1A 1AA,NULL
591,Tokyo,123-456-992,"123 Main St, Tokyo",Japan,100-0001,NULL
592,Tokyo,123-456-147,"123 Main St, Tokyo",Japan,100-0001,NULL
593,Paris,123-456-778,"123 Main St, Paris",France,75001,NULL
594,Berlin,123-456-362,"123 Main St, Berlin",Germany,10115,NULL
595,Paris,123-456-790,"123 Main St, Paris",France,75001,NULL
596,Berlin,123-456-363,"123 Main St, Berlin",Germany,10115,NULL
597,Berlin,123-456-925,"123 Main St, Berlin",Germany,10115,NULL
598,Berlin,123-456-365,"123 Main St, Berlin",Germany,10115,NULL
599,Berlin,123-456-245,"123 Main St, Berlin",Germany,10115,NULL
6,London,123-456-416,"123 Main St, London",UK,SW1A 1AA,NULL
60,Berlin,123-456-497,"123 Main St, Berlin",Germany,10115,NULL
600,London,123-456-531,"123 Main St, London",UK,SW1A 1AA,NULL
601,New York,123-456-862,"123 Main St, New York",USA,10001,NULL
602,Paris,123-456-492,"123 Main St, Paris",France,75001,NULL
603,Berlin,123-456-704,"123 Main St, Berlin",Germany,10115,NULL
604,Tokyo,123-456-387,"123 Main St, Tokyo",Japan,100-0001,NULL
605,London,123-456-693,"123 Main St, London",UK,SW1A 1AA,NULL
606,Berlin,123-456-591,"123 Main St, Berlin",Germany,10115,NULL
607,Berlin,123-456-512,"123 Main St, Berlin",Germany,10115,NULL
608,Tokyo,123-456-665,"123 Main St, Tokyo",Japan,100-0001,NULL
609,Paris,123-456-276,"123 Main St, Paris",France,75001,NULL
61,New York,123-456-070,"123 Main St, New York",USA,10001,NULL
610,Paris,123-456-533,"123 Main St, Paris",France,75001,NULL
611,Berlin,123-456-051,"123 Main St, Berlin",Germany,10115,NULL
612,New York,123-456-951,"123 Main St, New York",USA,10001,NULL
613,Tokyo,123-456-977,"123 Main St, Tokyo",Japan,100-0001,NULL
614,Paris,123-456-313,"123 Main St, Paris",France,75001,NULL
615,Tokyo,123-456-263,"123 Main St, Tokyo",Japan,100-0001,NULL
616,Tokyo,123-456-809,"123 Main St, Tokyo",Japan,100-0001,NULL
617,Tokyo,123-456-924,"123 Main St, Tokyo",Japan,100-0001,NULL
618,Paris,123-456-770,"123 Main St, Paris",France,75001,NULL
619,Paris,123-456-650,"123 Main St, Paris",France,75001,NULL
62,Berlin,123-456-898,"123 Main St, Berlin",Germany,10115,NULL
620,Berlin,123-456-158,"123 Main St, Berlin",Germany,10115,NULL
621,Paris,123-456-491,"123 Main St, Paris",France,75001,NULL
622,London,123-456-608,"123 Main St, London",UK,SW1A 1AA,NULL
623,New York,123-456-748,"123 Main St, New York",USA,10001,NULL
624,New York,123-456-154,"123 Main St, New York",USA,10001,NULL
625,Berlin,123-456-373,"123 Main St, Berlin",Germany,10115,NULL
626,Berlin,123-456-871,"123 Main St, Berlin",Germany,10115,NULL
627,Paris,123-456-962,"123 Main St, Paris",France,75001,NULL
628,Berlin,123-456-897,"123 Main St, Berlin",Germany,10115,NULL
629,London,123-456-242,"123 Main St, London",UK,SW1A 1AA,NULL
63,Paris,123-456-057,"123 Main St, Paris",France,75001,NULL
630,New York,123-456-305,"123 Main St, New York",USA,10001,NULL
631,New York,123-456-710,"123 Main St, New York",USA,10001,NULL
632,London,123-456-707,"123 Main St, London",UK,SW1A 1AA,NULL
633,Tokyo,123-456-601,"123 Main St, Tokyo",Japan,100-0001,NULL
634,Tokyo,123-456-924,"123 Main St, Tokyo",Japan,100-0001,NULL
635,London,123-456-825,"123 Main St, London",UK,SW1A 1AA,NULL
636,Berlin,123-456-932,"123 Main St, Berlin",Germany,10115,NULL
637,Berlin,123-456-754,"123 Main St, Berlin",Germany,10115,NULL
638,Paris,123-456-025,"123 Main St, Paris",France,75001,NULL
639,London,123-456-751,"123 Main St, London",UK,SW1A 1AA,NULL
64,Tokyo,123-456-165,"123 Main St, Tokyo",Japan,100-0001,NULL
640,New York,123-456-973,"123 Main St, New York",USA,10001,NULL
641,Tokyo,123-456-377,"123 Main St, Tokyo",Japan,100-0001,NULL
642,New York,123-456-223,"123 Main St, New York",USA,10001,NULL
643,Tokyo,123-456-177,"123 Main St, Tokyo",Japan,100-0001,NULL
644,New York,123-456-773,"123 Main St, New York",USA,10001,NULL
645,Paris,123-456-175,"123 Main St, Paris",France,75001,NULL
646,New York,123-456-153,"123 Main St, New York",USA,10001,NULL
647,Tokyo,123-456-730,"123 Main St, Tokyo",Japan,100-0001,NULL
648,New York,123-456-184,"123 Main St, New York",USA,10001,NULL
649,Paris,123-456-281,"123 Main St, Paris",France,75001,NULL
65,New York,123-456-178,"123 Main St, New York",USA,10001,NULL
650,London,123-456-590,"123 Main St, London",UK,SW1A 1AA,NULL
651,Paris,123-456-353,"123 Main St, Paris",France,75001,NULL
652,Berlin,123-456-225,"123 Main St, Berlin",Germany,10115,NULL
653,Paris,123-456-939,"123 Main St, Paris",France,75001,NULL
654,London,123-456-885,"123 Main St, London",UK,SW1A 1AA,NULL
655,Berlin,123-456-897,"123 Main St, Berlin",Germany,10115,NULL
656,London,123-456-539,"123 Main St, London",UK,SW1A 1AA,NULL
657,Paris,123-456-322,"123 Main St, Paris",France,75001,NULL
658,Berlin,123-456-741,"123 Main St, Berlin",Germany,10115,NULL
659,Paris,123-456-929,"123 Main St, Paris",France,75001,NULL
66,New York,123-456-827,"123 Main St, New York",USA,10001,NULL
660,Berlin,123-456-889,"123 Main St, Berlin",Germany,10115,NULL
661,Berlin,123-456-508,"123 Main St, Berlin",Germany,10115,NULL
662,New York,123-456-177,"123 Main St, New York",USA,10001,NULL
663,Tokyo,123-456-066,"123 Main St, Tokyo",Japan,100-0001,NULL
664,London,123-456-450,"123 Main St, London",UK,SW1A 1AA,NULL
665,Berlin,123-456-274,"123 Main St, Berlin",Germany,10115,NULL
666,Paris,123-456-632,"123 Main St, Paris",France,75001,NULL
667,Tokyo,123-456-370,"123 Main St, Tokyo",Japan,100-0001,NULL
668,Tokyo,123-456-173,"123 Main St, Tokyo",Japan,100-0001,NULL
669,Paris,123-456-000,"123 Main St, Paris",France,75001,NULL
67,New York,123-456-205,"123 Main St, New York",USA,10001,NULL
670,Paris,123-456-789,"123 Main St, Paris",France,75001,NULL
671,Tokyo,123-456-342,"123 Main St, Tokyo",Japan,100-0001,NULL
672,New York,123-456-863,"123 Main St, New York",USA,10001,NULL
673,Berlin,123-456-845,"123 Main St, Berlin",Germany,10115,NULL
674,Berlin,123-456-891,"123 Main St, Berlin",Germany,10115,NULL
675,London,123-456-597,"123 Main St, London",UK,SW1A 1AA,NULL
676,London,123-456-913,"123 Main St, London",UK,SW1A 1AA,NULL
677,Tokyo,123-456-178,"123 Main St, Tokyo",Japan,100-0001,NULL
678,London,123-456-670,"123 Main St, London",UK,SW1A 1AA,NULL
679,Paris,123-456-704,"123 Main St, Paris",France,75001,NULL
68,Berlin,123-456-470,"123 Main St, Berlin",Germany,10115,NULL
680,London,123-456-834,"123 Main St, London",UK,SW1A 1AA,NULL
681,Tokyo,123-456-682,"123 Main St, Tokyo",Japan,100-0001,NULL
682,Paris,123-456-693,"123 Main St, Paris",France,75001,NULL
683,Berlin,123-456-519,"123 Main St, Berlin",Germany,10115,NULL
684,London,123-456-804,"123 Main St, London",UK,SW1A 1AA,NULL
685,Berlin,123-456-501,"123 Main St, Berlin",Germany,10115,NULL
686,London,123-456-005,"123 Main St, London",UK,SW1A 1AA,NULL
687,Paris,123-456-690,"123 Main St, Paris",France,75001,NULL
688,Tokyo,123-456-677,"123 Main St, Tokyo",Japan,100-0001,NULL
689,New York,123-456-137,"123 Main St, New York",USA,10001,NULL
69,Tokyo,123-456-939,"123 Main St, Tokyo",Japan,100-0001,NULL
690,Tokyo,123-456-951,"123 Main St, Tokyo",Japan,100-0001,NULL
691,Paris,123-456-101,"123 Main St, Paris",France,75001,NULL
692,Berlin,123-456-344,"123 Main St, Berlin",Germany,10115,NULL
693,Paris,123-456-135,"123 Main St, Paris",France,75001,NULL
694,Paris,123-456-696,"123 Main St, Paris",France,75001,NULL
695,Paris,123-456-205,"123 Main St, Paris",France,75001,NULL
696,Berlin,123-456-940,"123 Main St, Berlin",Germany,10115,NULL
697,London,123-456-768,"123 Main St, London",UK,SW1A 1AA,NULL
698,Tokyo,123-456-243,"123 Main St, Tokyo",Japan,100-0001,NULL
699,London,123-456-552,"123 Main St, London",UK,SW1A 1AA,NULL
7,Paris,123-456-308,"123 Main St, Paris",France,75001,NULL
70,Paris,123-456-661,"123 Main St, Paris",France,75001,NULL
700,Berlin,123-456-663,"123 Main St, Berlin",Germany,10115,NULL
701,Tokyo,123-456-225,"123 Main St, Tokyo",Japan,100-0001,NULL
702,Tokyo,123-456-843,"123 Main St, Tokyo",Japan,100-0001,NULL
703,Berlin,123-456-543,"123 Main St, Berlin",Germany,10115,NULL
704,London,123-456-971,"123 Main St, London",UK,SW1A 1AA,NULL
705,Paris,123-456-770,"123 Main St, Paris",France,75001,NULL
706,Tokyo,123-456-017,"123 Main St, Tokyo",Japan,100-0001,NULL
707,London,123-456-901,"123 Main St, London",UK,SW1A 1AA,NULL
708,London,123-456-533,"123 Main St, London",UK,SW1A 1AA,NULL
709,Paris,123-456-328,"123 Main St, Paris",France,75001,NULL
71,Paris,123-456-674,"123 Main St, Paris",France,75001,NULL
710,New York,123-456-919,"123 Main St, New York",USA,10001,NULL
711,New York,123-456-652,"123 Main St, New York",USA,10001,NULL
712,Berlin,123-456-908,"123 Main St, Berlin",Germany,10115,NULL
713,Tokyo,123-456-686,"123 Main St, Tokyo",Japan,100-0001,NULL
714,Berlin,123-456-232,"123 Main St, Berlin",Germany,10115,NULL
715,Berlin,123-456-559,"123 Main St, Berlin",Germany,10115,NULL
716,Paris,123-456-041,"123 Main St, Paris",France,75001,NULL
717,Paris,123-456-678,"123 Main St, Paris",France,75001,NULL
718,Tokyo,123-456-771,"123 Main St, Tokyo",Japan,100-0001,NULL
719,Berlin,123-456-222,"123 Main St, Berlin",Germany,10115,NULL
72,Berlin,123-456-564,"123 Main St, Berlin",Germany,10115,NULL
720,Paris,123-456-358,"123 Main St, Paris",France,75001,NULL
721,Tokyo,123-456-472,"123 Main St, Tokyo",Japan,100-0001,NULL
722,London,123-456-426,"123 Main St, London",UK,SW1A 1AA,NULL
723,Paris,123-456-163,"123 Main St, Paris",France,75001,NULL
724,Berlin,123-456-957,"123 Main St, Berlin",Germany,10115,NULL
725,Paris,123-456-063,"123 Main St, Paris",France,75001,NULL
726,London,123-456-928,"123 Main St, London",UK,SW1A 1AA,NULL
727,London,123-456-757,"123 Main St, London",UK,SW1A 1AA,NULL
728,New York,123-456-573,"123 Main St, New York",USA,10001,NULL
729,Tokyo,123-456-096,"123 Main St, Tokyo",Japan,100-0001,NULL
73,Tokyo,123-456-356,"123 Main St, Tokyo",Japan,100-0001,NULL
730,London,123-456-375,"123 Main St, London",UK,SW1A 1AA,NULL
731,Tokyo,123-456-922,"123 Main St, Tokyo",Japan,100-0001,NULL
732,Berlin,123-456-826,"123 Main St, Berlin",Germany,10115,NULL
733,New York,123-456-858,"123 Main St, New York",USA,10001,NULL
734,Tokyo,123-456-496,"123 Main St, Tokyo",Japan,100-0001,NULL
735,Berlin,123-456-246,"123 Main St, Berlin",Germany,10115,NULL
736,Berlin,123-456-912,"123 Main St, Berlin",Germany,10115,NULL
737,Berlin,123-456-524,"123 Main St, Berlin",Germany,10115,NULL
738,Paris,123-456-654,"123 Main St, Paris",France,75001,NULL
739,Berlin,123-456-454,"123 Main St, Berlin",Germany,10115,NULL
74,New York,123-456-501,"123 Main St, New York",USA,10001,NULL
740,New York,123-456-485,"123 Main St, New York",USA,10001,NULL
741,New York,123-456-339,"123 Main St, New York",USA,10001,NULL
742,Paris,123-456-257,"123 Main St, Paris",France,75001,NULL
743,Tokyo,123-456-028,"123 Main St, Tokyo",Japan,100-0001,NULL
744,New York,123-456-903,"123 Main St, New York",USA,10001,NULL
745,Berlin,123-456-967,"123 Main St, Berlin",Germany,10115,NULL
746,Berlin,123-456-598,"123 Main St, Berlin",Germany,10115,NULL
747,Tokyo,123-456-459,"123 Main St, Tokyo",Japan,100-0001,NULL
748,Tokyo,123-456-740,"123 Main St, Tokyo",Japan,100-0001,NULL
749,Tokyo,123-456-300,"123 Main St, Tokyo",Japan,100-0001,NULL
75,Berlin,123-456-263,"123 Main St, Berlin",Germany,10115,NULL
750,Paris,123-456-901,"123 Main St, Paris",France,75001,NULL
751,Tokyo,123-456-139,"123 Main St, Tokyo",Japan,100-0001,NULL
752,Tokyo,123-456-475,"123 Main St, Tokyo",Japan,100-0001,NULL
753,Tokyo,123-456-636,"123 Main St, Tokyo",Japan,100-0001,NULL
754,New York,123-456-128,"123 Main St, New York",USA,10001,NULL
755,New York,123-456-961,"123 Main St, New York",USA,10001,NULL
756,London,123-456-629,"123 Main St, London",UK,SW1A 1AA,NULL
757,Paris,123-456-309,"123 Main St, Paris",France,75001,NULL
758,Tokyo,123-456-736,"123 Main St, Tokyo",Japan,100-0001,NULL
759,London,123-456-910,"123 Main St, London",UK,SW1A 1AA,NULL
76,Paris,123-456-062,"123 Main St, Paris",France,75001,NULL
760,Berlin,123-456-371,"123 Main St, Berlin",Germany,10115,NULL
761,New York,123-456-371,"123 Main St, New York",USA,10001,NULL
762,London,123-456-316,"123 Main St, London",UK,SW1A 1AA,NULL
763,New York,123-456-792,"123 Main St, New York",USA,10001,NULL
764,Berlin,123-456-619,"123 Main St, Berlin",Germany,10115,NULL
765,Paris,123-456-168,"123 Main St, Paris",France,75001,NULL
766,Tokyo,123-456-178,"123 Main St, Tokyo",Japan,100-0001,NULL
767,Paris,123-456-698,"123 Main St, Paris",France,75001,NULL
768,Tokyo,123-456-871,"123 Main St, Tokyo",Japan,100-0001,NULL
769,New York,123-456-697,"123 Main St, New York",USA,10001,NULL
77,London,123-456-707,"123 Main St, London",UK,SW1A 1AA,NULL
770,Berlin,123-456-673,"123 Main St, Berlin",Germany,10115,NULL
771,London,123-456-851,"123 Main St, London",UK,SW1A 1AA,NULL
772,London,123-456-584,"123 Main St, London",UK,SW1A 1AA,NULL
773,New York,123-456-806,"123 Main St, New York",USA,10001,NULL
774,Tokyo,123-456-335,"123 Main St, Tokyo",Japan,100-0001,NULL
775,New York,123-456-938,"123 Main St, New York",USA,10001,NULL
776,Berlin,123-456-021,"123 Main St, Berlin",Germany,10115,NULL
777,Berlin,123-456-864,"123 Main St, Berlin",Germany,10115,NULL
778,London,123-456-983,"123 Main St, London",UK,SW1A 1AA,NULL
779,Tokyo,123-456-406,"123 Main St, Tokyo",Japan,100-0001,NULL
78,Tokyo,123-456-860,"123 Main St, Tokyo",Japan,100-0001,NULL
780,New York,123-456-225,"123 Main St, New York",USA,10001,NULL
781,Tokyo,123-456-412,"123 Main St, Tokyo",Japan,100-0001,NULL
782,Paris,123-456-120,"123 Main St, Paris",France,75001,NULL
783,London,123-456-440,"123 Main St, London",UK,SW1A 1AA,NULL
784,New York,123-456-377,"123 Main St, New York",USA,10001,NULL
785,Paris,123-456-540,"123 Main St, Paris",France,75001,NULL
786,Paris,123-456-461,"123 Main St, Paris",France,75001,NULL
787,New York,123-456-263,"123 Main St, New York",USA,10001,NULL
788,Tokyo,123-456-339,"123 Main St, Tokyo",Japan,100-0001,NULL
789,Berlin,123-456-338,"123 Main St, Berlin",Germany,10115,NULL
79,London,123-456-815,"123 Main St, London",UK,SW1A 1AA,NULL
790,Berlin,123-456-858,"123 Main St, Berlin",Germany,10115,NULL
791,Tokyo,123-456-646,"123 Main St, Tokyo",Japan,100-0001,NULL
792,Paris,123-456-540,"123 Main St, Paris",France,75001,NULL
793,New York,123-456-768,"123 Main St, New York",USA,10001,NULL
794,Paris,123-456-468,"123 Main St, Paris",France,75001,NULL
795,Berlin,123-456-776,"123 Main St, Berlin",Germany,10115,NULL
796,Paris,123-456-651,"123 Main St, Paris",France,75001,NULL
797,London,123-456-029,"123 Main St, London",UK,SW1A 1AA,NULL
798,Tokyo,123-456-382,"123 Main St, Tokyo",Japan,100-0001,NULL
799,Tokyo,123-456-363,"123 Main St, Tokyo",Japan,100-0001,NULL
8,Paris,123-456-898,"123 Main St, Paris",France,75001,NULL
80,New York,123-456-864,"123 Main St, New York",USA,10001,NULL
800,Paris,123-456-875,"123 Main St, Paris",France,75001,NULL
801,Paris,123-456-177,"123 Main St, Paris",France,75001,NULL
802,Tokyo,123-456-870,"123 Main St, Tokyo",Japan,100-0001,NULL
803,Berlin,123-456-143,"123 Main St, Berlin",Germany,10115,NULL
804,London,123-456-611,"123 Main St, London",UK,SW1A 1AA,NULL
805,Paris,123-456-450,"123 Main St, Paris",France,75001,NULL
806,Berlin,123-456-679,"123 Main St, Berlin",Germany,10115,NULL
807,Berlin,123-456-947,"123 Main St, Berlin",Germany,10115,NULL
808,London,123-456-698,"123 Main St, London",UK,SW1A 1AA,NULL
809,New York,123-456-873,"123 Main St, New York",USA,10001,NULL
81,Paris,123-456-923,"123 Main St, Paris",France,75001,NULL
810,London,123-456-838,"123 Main St, London",UK,SW1A 1AA,NULL
811,New York,123-456-920,"123 Main St, New York",USA,10001,NULL
812,London,123-456-586,"123 Main St, London",UK,SW1A 1AA,NULL
813,Paris,123-456-544,"123 Main St, Paris",France,75001,NULL
814,New York,123-456-338,"123 Main St, New York",USA,10001,NULL
815,Berlin,123-456-495,"123 Main St, Berlin",Germany,10115,NULL
816,London,123-456-024,"123 Main St, London",UK,SW1A 1AA,NULL
817,Paris,123-456-963,"123 Main St, Paris",France,75001,NULL
818,New York,123-456-890,"123 Main St, New York",USA,10001,NULL
819,Tokyo,123-456-708,"123 Main St, Tokyo",Japan,100-0001,NULL
82,Tokyo,123-456-657,"123 Main St, Tokyo",Japan,100-0001,NULL
820,Tokyo,123-456-594,"123 Main St, Tokyo",Japan,100-0001,NULL
821,Berlin,123-456-526,"123 Main St, Berlin",Germany,10115,NULL
822,New York,123-456-303,"123 Main St, New York",USA,10001,NULL
823,Tokyo,123-456-749,"123 Main St, Tokyo",Japan,100-0001,NULL
824,Paris,123-456-445,"123 Main St, Paris",France,75001,NULL
825,Paris,123-456-750,"123 Main St, Paris",France,75001,NULL
826,Tokyo,123-456-373,"123 Main St, Tokyo",Japan,100-0001,NULL
827,Tokyo,123-456-638,"123 Main St, Tokyo",Japan,100-0001,NULL
828,Tokyo,123-456-892,"123 Main St, Tokyo",Japan,100-0001,NULL
829,New York,123-456-911,"123 Main St, New York",USA,10001,NULL
83,Tokyo,123-456-679,"123 Main St, Tokyo",Japan,100-0001,NULL
830,New York,123-456-547,"123 Main St, New York",USA,10001,NULL
831,Tokyo,123-456-202,"123 Main St, Tokyo",Japan,100-0001,NULL
832,London,123-456-349,"123 Main St, London",UK,SW1A 1AA,NULL
833,London,123-456-084,"123 Main St, London",UK,SW1A 1AA,NULL
834,Berlin,123-456-812,"123 Main St, Berlin",Germany,10115,NULL
835,Paris,123-456-200,"123 Main St, Paris",France,75001,NULL
836,Berlin,123-456-797,"123 Main St, Berlin",Germany,10115,NULL
837,Berlin,123-456-160,"123 Main St, Berlin",Germany,10115,NULL
838,London,123-456-601,"123 Main St, London",UK,SW1A 1AA,NULL
839,Paris,123-456-828,"123 Main St, Paris",France,75001,NULL
84,Paris,123-456-845,"123 Main St, Paris",France,75001,NULL
840,Tokyo,123-456-530,"123 Main St, Tokyo",Japan,100-0001,NULL
841,Paris,123-456-293,"123 Main St, Paris",France,75001,NULL
842,London,123-456-664,"123 Main St, London",UK,SW1A 1AA,NULL
843,Berlin,123-456-612,"123 Main St, Berlin",Germany,10115,NULL
844,Berlin,123-456-268,"123 Main St, Berlin",Germany,10115,NULL
845,New York,123-456-725,"123 Main St, New York",USA,10001,NULL
846,London,123-456-305,"123 Main St, London",UK,SW1A 1AA,NULL
847,Paris,123-456-978,"123 Main St, Paris",France,75001,NULL
848,New York,123-456-454,"123 Main St, New York",USA,10001,NULL
849,Tokyo,123-456-058,"123 Main St, Tokyo",Japan,100-0001,NULL
85,Paris,123-456-439,"123 Main St, Paris",France,75001,NULL
850,Paris,123-456-443,"123 Main St, Paris",France,75001,NULL
851,London,123-456-822,"123 Main St, London",UK,SW1A 1AA,NULL
852,Paris,123-456-507,"123 Main St, Paris",France,75001,NULL
853,Tokyo,123-456-469,"123 Main St, Tokyo",Japan,100-0001,NULL
854,Berlin,123-456-317,"123 Main St, Berlin",Germany,10115,NULL
855,Tokyo,123-456-757,"123 Main St, Tokyo",Japan,100-0001,NULL
856,London,123-456-494,"123 Main St, London",UK,SW1A 1AA,NULL
857,Paris,123-456-102,"123 Main St, Paris",France,75001,NULL
858,Berlin,123-456-491,"123 Main St, Berlin",Germany,10115,NULL
859,Paris,123-456-082,"123 Main St, Paris",France,75001,NULL
86,Paris,123-456-976,"123 Main St, Paris",France,75001,NULL
860,Tokyo,123-456-784,"123 Main St, Tokyo",Japan,100-0001,NULL
861,New York,123-456-243,"123 Main St, New York",USA,10001,NULL
862,New York,123-456-991,"123 Main St, New York",USA,10001,NULL
863,Paris,123-456-305,"123 Main St, Paris",France,75001,NULL
864,London,123-456-705,"123 Main St, London",UK,SW1A 1AA,NULL
865,London,123-456-538,"123 Main St, London",UK,SW1A 1AA,NULL
866,Tokyo,123-456-746,"123 Main St, Tokyo",Japan,100-0001,NULL
867,Paris,123-456-810,"123 Main St, Paris",France,75001,NULL
868,New York,123-456-983,"123 Main St, New York",USA,10001,NULL
869,London,123-456-504,"123 Main St, London",UK,SW1A 1AA,NULL
87,London,123-456-238,"123 Main St, London",UK,SW1A 1AA,NULL
870,London,123-456-087,"123 Main St, London",UK,SW1A 1AA,NULL
871,London,123-456-948,"123 Main St, London",UK,SW1A 1AA,NULL
872,New York,123-456-513,"123 Main St, New York",USA,10001,NULL
873,London,123-456-407,"123 Main St, London",UK,SW1A 1AA,NULL
874,New York,123-456-140,"123 Main St, New York",USA,10001,NULL
875,London,123-456-364,"123 Main St, London",UK,SW1A 1AA,NULL
876,Berlin,123-456-449,"123 Main St, Berlin",Germany,10115,NULL
877,Berlin,123-456-849,"123 Main St, Berlin",Germany,10115,NULL
878,London,123-456-928,"123 Main St, London",UK,SW1A 1AA,NULL
879,London,123-456-607,"123 Main St, London",UK,SW1A 1AA,NULL
88,Berlin,123-456-452,"123 Main St, Berlin",Germany,10115,NULL
880,New York,123-456-362,"123 Main St, New York",USA,10001,NULL
881,London,123-456-620,"123 Main St, London",UK,SW1A 1AA,NULL
882,London,123-456-053,"123 Main St, London",UK,SW1A 1AA,NULL
883,Paris,123-456-160,"123 Main St, Paris",France,75001,NULL
884,Tokyo,123-456-944,"123 Main St, Tokyo",Japan,100-0001,NULL
885,Tokyo,123-456-132,"123 Main St, Tokyo",Japan,100-0001,NULL
886,London,123-456-737,"123 Main St, London",UK,SW1A 1AA,NULL
887,Tokyo,123-456-848,"123 Main St, Tokyo",Japan,100-0001,NULL
888,Tokyo,123-456-974,"123 Main St, Tokyo",Japan,100-0001,NULL
889,London,123-456-816,"123 Main St, London",UK,SW1A 1AA,NULL
89,London,123-456-726,"123 Main St, London",UK,SW1A 1AA,NULL
890,London,123-456-230,"123 Main St, London",UK,SW1A 1AA,NULL
891,Tokyo,123-456-437,"123 Main St, Tokyo",Japan,100-0001,NULL
892,Paris,123-456-958,"123 Main St, Paris",France,75001,NULL
893,Berlin,123-456-241,"123 Main St, Berlin",Germany,10115,NULL
894,New York,123-456-267,"123 Main St, New York",USA,10001,NULL
895,New York,123-456-674,"123 Main St, New York",USA,10001,NULL
896,Tokyo,123-456-977,"123 Main St, Tokyo",Japan,100-0001,NULL
897,Paris,123-456-808,"123 Main St, Paris",France,75001,NULL
898,Paris,123-456-034,"123 Main St, Paris",France,75001,NULL
899,Berlin,123-456-627,"123 Main St, Berlin",Germany,10115,NULL
9,London,123-456-864,"123 Main St, London",UK,SW1A 1AA,NULL
90,Berlin,123-456-372,"123 Main St, Berlin",Germany,10115,NULL
900,Tokyo,123-456-656,"123 Main St, Tokyo",Japan,100-0001,NULL
901,New York,123-456-038,"123 Main St, New York",USA,10001,NULL
902,London,123-456-012,"123 Main St, London",UK,SW1A 1AA,NULL
903,Tokyo,123-456-163,"123 Main St, Tokyo",Japan,100-0001,NULL
904,Berlin,123-456-816,"123 Main St, Berlin",Germany,10115,NULL
905,London,123-456-060,"123 Main St, London",UK,SW1A 1AA,NULL
906,London,123-456-609,"123 Main St, London",UK,SW1A 1AA,NULL
907,Paris,123-456-841,"123 Main St, Paris",France,75001,NULL
908,Berlin,123-456-659,"123 Main St, Berlin",Germany,10115,NULL
909,Berlin,123-456-342,"123 Main St, Berlin",Germany,10115,NULL
91,London,123-456-533,"123 Main St, London",UK,SW1A 1AA,NULL
910,Tokyo,123-456-810,"123 Main St, Tokyo",Japan,100-0001,NULL
911,Tokyo,123-456-913,"123 Main St, Tokyo",Japan,100-0001,NULL
912,London,123-456-285,"123 Main St, London",UK,SW1A 1AA,NULL
913,Paris,123-456-966,"123 Main St, Paris",France,75001,NULL
914,Paris,123-456-959,"123 Main St, Paris",France,75001,NULL
915,Berlin,123-456-215,"123 Main St, Berlin",Germany,10115,NULL
916,Tokyo,123-456-435,"123 Main St, Tokyo",Japan,100-0001,NULL
917,London,123-456-790,"123 Main St, London",UK,SW1A 1AA,NULL
918,Paris,123-456-453,"123 Main St, Paris",France,75001,NULL
919,Paris,123-456-450,"123 Main St, Paris",France,75001,NULL
92,New York,123-456-266,"123 Main St, New York",USA,10001,NULL
920,Tokyo,123-456-870,"123 Main St, Tokyo",Japan,100-0001,NULL
921,London,123-456-655,"123 Main St, London",UK,SW1A 1AA,NULL
922,London,123-456-279,"123 Main St, London",UK,SW1A 1AA,NULL
923,London,123-456-641,"123 Main St, London",UK,SW1A 1AA,NULL
924,London,123-456-549,"123 Main St, London",UK,SW1A 1AA,NULL
925,London,123-456-481,"123 Main St, London",UK,SW1A 1AA,NULL
926,Tokyo,123-456-397,"123 Main St, Tokyo",Japan,100-0001,NULL
927,London,123-456-866,"123 Main St, London",UK,SW1A 1AA,NULL
928,Paris,123-456-569,"123 Main St, Paris",France,75001,NULL
929,New York,123-456-915,"123 Main St, New York",USA,10001,NULL
93,Tokyo,123-456-712,"123 Main St, Tokyo",Japan,100-0001,NULL
930,Berlin,123-456-990,"123 Main St, Berlin",Germany,10115,NULL
931,Berlin,123-456-479,"123 Main St, Berlin",Germany,10115,NULL
932,Tokyo,123-456-133,"123 Main St, Tokyo",Japan,100-0001,NULL
933,London,123-456-791,"123 Main St, London",UK,SW1A 1AA,NULL
934,New York,123-456-952,"123 Main St, New York",USA,10001,NULL
935,Berlin,123-456-434,"123 Main St, Berlin",Germany,10115,NULL
936,London,123-456-445,"123 Main St, London",UK,SW1A 1AA,NULL
937,Tokyo,123-456-589,"123 Main St, Tokyo",Japan,100-0001,NULL
938,Tokyo,123-456-412,"123 Main St, Tokyo",Japan,100-0001,NULL
939,Berlin,123-456-485,"123 Main St, Berlin",Germany,10115,NULL
94,New York,123-456-390,"123 Main St, New York",USA,10001,NULL
940,Paris,123-456-284,"123 Main St, Paris",France,75001,NULL
941,New York,123-456-475,"123 Main St, New York",USA,10001,NULL
942,London,123-456-360,"123 Main St, London",UK,SW1A 1AA,NULL
943,Berlin,123-456-430,"123 Main St, Berlin",Germany,10115,NULL
944,New York,123-456-689,"123 Main St, New York",USA,10001,NULL
945,Paris,123-456-897,"123 Main St, Paris",France,75001,NULL
946,Berlin,123-456-129,"123 Main St, Berlin",Germany,10115,NULL
947,New York,123-456-328,"123 Main St, New York",USA,10001,NULL
948,Tokyo,123-456-776,"123 Main St, Tokyo",Japan,100-0001,NULL
949,Paris,123-456-190,"123 Main St, Paris",France,75001,NULL
95,Berlin,123-456-476,"123 Main St, Berlin",Germany,10115,NULL
950,London,123-456-838,"123 Main St, London",UK,SW1A 1AA,NULL
951,Paris,123-456-955,"123 Main St, Paris",France,75001,NULL
952,Berlin,123-456-681,"123 Main St, Berlin",Germany,10115,NULL
953,New York,123-456-637,"123 Main St, New York",USA,10001,NULL
954,Tokyo,123-456-751,"123 Main St, Tokyo",Japan,100-0001,NULL
955,New York,123-456-194,"123 Main St, New York",USA,10001,NULL
956,Paris,123-456-652,"123 Main St, Paris",France,75001,NULL
957,Berlin,123-456-067,"123 Main St, Berlin",Germany,10115,NULL
958,Paris,123-456-383,"123 Main St, Paris",France,75001,NULL
959,Berlin,123-456-007,"123 Main St, Berlin",Germany,10115,NULL
96,Berlin,123-456-989,"123 Main St, Berlin",Germany,10115,NULL
960,Berlin,123-456-100,"123 Main St, Berlin",Germany,10115,NULL
961,Berlin,123-456-798,"123 Main St, Berlin",Germany,10115,NULL
962,London,123-456-153,"123 Main St, London",UK,SW1A 1AA,NULL
963,London,123-456-186,"123 Main St, London",UK,SW1A 1AA,NULL
964,Berlin,123-456-764,"123 Main St, Berlin",Germany,10115,NULL
965,New York,123-456-995,"123 Main St, New York",USA,10001,NULL
966,Tokyo,123-456-223,"123 Main St, Tokyo",Japan,100-0001,NULL
967,Berlin,123-456-618,"123 Main St, Berlin",Germany,10115,NULL
968,Berlin,123-456-438,"123 Main St, Berlin",Germany,10115,NULL
969,London,123-456-911,"123 Main St, London",UK,SW1A 1AA,NULL
97,Paris,123-456-400,"123 Main St, Paris",France,75001,NULL
970,London,123-456-976,"123 Main St, London",UK,SW1A 1AA,NULL
971,Berlin,123-456-155,"123 Main St, Berlin",Germany,10115,NULL
972,Berlin,123-456-425,"123 Main St, Berlin",Germany,10115,NULL
973,Berlin,123-456-562,"123 Main St, Berlin",Germany,10115,NULL
974,London,123-456-373,"123 Main St, London",UK,SW1A 1AA,NULL
975,Berlin,123-456-528,"123 Main St, Berlin",Germany,10115,NULL
976,London,123-456-917,"123 Main St, London",UK,SW1A 1AA,NULL
977,Berlin,123-456-809,"123 Main St, Berlin",Germany,10115,NULL
978,London,123-456-626,"123 Main St, London",UK,SW1A 1AA,NULL
979,Paris,123-456-697,"123 Main St, Paris",France,75001,NULL
98,New York,123-456-562,"123 Main St, New York",USA,10001,NULL
980,New York,123-456-668,"123 Main St, New York",USA,10001,NULL
981,New York,123-456-471,"123 Main St, New York",USA,10001,NULL
982,New York,123-456-451,"123 Main St, New York",USA,10001,NULL
983,Tokyo,123-456-268,"123 Main St, Tokyo",Japan,100-0001,NULL
984,Berlin,123-456-854,"123 Main St, Berlin",Germany,10115,NULL
985,London,123-456-730,"123 Main St, London",UK,SW1A 1AA,NULL
986,London,123-456-454,"123 Main St, London",UK,SW1A 1AA,NULL
987,Paris,123-456-188,"123 Main St, Paris",France,75001,NULL
988,New York,123-456-294,"123 Main St, New York",USA,10001,NULL
989,London,123-456-970,"123 Main St, London",UK,SW1A 1AA,NULL
99,Paris,123-456-018,"123 Main St, Paris",France,75001,NULL
990,New York,123-456-674,"123 Main St, New York",USA,10001,NULL
991,New York,123-456-661,"123 Main St, New York",USA,10001,NULL
992,Tokyo,123-456-835,"123 Main St, Tokyo",Japan,100-0001,NULL
993,New York,123-456-441,"123 Main St, New York",USA,10001,NULL
994,Berlin,123-456-931,"123 Main St, Berlin",Germany,10115,NULL
995,London,123-456-627,"123 Main St, London",UK,SW1A 1AA,NULL
996,Tokyo,123-456-106,"123 Main St, Tokyo",Japan,100-0001,NULL
997,Tokyo,123-456-808,"123 Main St, Tokyo",Japan,100-0001,NULL
998,Paris,123-456-964,"123 Main St, Paris",France,75001,NULL
999,Berlin,123-456-103,"123 Main St, Berlin",Germany,10115,NULL
